SCD 1                   
1 22490U 93009B   26087.44083009  .00000529  00000+0  93888-4 0  9994
2 22490  24.9708 346.1241 0041900   3.7048 157.3813 14.46079478749419
TECHSAT 1B (GO-32)      
1 25397U 98043D   26087.49521919  .00000090  00000+0  59018-4 0  9998
2 25397  99.0047  78.2313 0002336  88.9707 271.1738 14.24411010439849
SCD 2                   
1 25504U 98060A   26087.38551053  .00000434  00000+0  70233-4 0  9991
2 25504  24.9947 210.4520 0016766 350.1305  50.8420 14.45492233448620
DLR-TUBSAT              
1 25757U 99029B   26087.55333755  .00000128  00000+0  43197-4 0  9992
2 25757  98.6680  80.4143 0013248 232.6993 127.2994 14.52404220421541
TERRA                   
1 25994U 99068A   26087.63646833  .00000436  00000+0  97816-4 0  9990
2 25994  97.9553 140.3437 0003569 111.9893  49.4323 14.61034278397848
MAROC-TUBSAT            
1 27004U 01056D   26087.46516784 -.00000007  00000+0  45360-4 0  9998
2 27004  99.8036 262.8116 0019685 351.9222  71.9818 13.70258912215133
AQUA                    
1 27424U 02022A   26087.58697034  .00001029  00000+0  21489-3 0  9998
2 27424  98.4205  55.3007 0001125 117.9874  11.4525 14.62019053271497
IRS-P6 (RESOURCESAT-1)  
1 28051U 03046A   26087.62900870  .00000239  00000+0  93928-4 0  9992
2 28051  98.2014 128.0546 0063240 223.2171 251.9147 14.36128266168969
SHIYAN-1 (SY-1)         
1 28220U 04012A   26087.55568492  .00016827  00000+0  55334-3 0  9994
2 28220  97.8740 160.5084 0004578 309.0051  51.0781 15.31606443198741
AURA                    
1 28376U 04026A   26087.59715971  .00001020  00000+0  21688-3 0  9995
2 28376  98.3340  43.4268 0001299  94.4221 265.7128 14.61190914154440
IRS-P5 (CARTOSAT-1)     
1 28649U 05017A   26087.54229752  .00001659  00000+0  17386-3 0  9999
2 28649  97.5390 114.2474 0001401  50.8320 309.3023 14.90828902131807
SINAH 1                 
1 28893U 05043D   26087.61729761  .00000503  00000+0  10505-3 0  9995
2 28893  98.2721 221.5246 0014872 164.1334 196.0337 14.64093844 88735
RESURS-DK 1             
1 29228U 06021A   26087.57836250  .00002559  00000+0  15126-3 0  9999
2 29228  69.9338 188.1622 0001199  53.9146 306.2131 15.12862078 90385
ARIRANG-2 (KOMPSAT-2)   
1 29268U 06031A   26087.61198832  .00000178  00000+0  41992-4 0  9992
2 29268  97.8314 275.9526 0013850 334.6792  97.8755 14.64603799 49685
LAPAN-TUBSAT            
1 29709U 07001A   26087.58118633  .00000085  00000+0  16324-4 0  9995
2 29709  98.1348  84.9980 0013617  87.7958 272.4816 14.85856148 39183
HAIYANG-1B              
1 31113U 07010A   26087.52638243  .00000125  00000+0  63120-4 0  9996
2 31113  98.3452  72.5213 0014752  81.1440 279.1413 14.31005278989092
COSMO-SKYMED 1          
1 31598U 07023A   26087.58560588  .00003577  00000+0  31876-3 0  9995
2 31598  97.8875 278.7719 0000961  99.7926 260.3404 14.96668274 17731
