[{"OBJECT_NAME":"SCD 1","OBJECT_ID":"1993-009B","EPOCH":"2026-03-28T10:34:47.719776","MEAN_MOTION":14.46079478,"ECCENTRICITY":0.00419002,"INCLINATION":24.9708,"RA_OF_ASC_NODE":346.1241,"ARG_OF_PERICENTER":3.7048,"MEAN_ANOMALY":157.3813,"EPHEMERIS_TYPE":0,"CLASSIFICATION_TYPE":"U","NORAD_CAT_ID":22490,"ELEMENT_SET_NO":999,"REV_AT_EPOCH":74941,"BSTAR":9.3887788e-5,"MEAN_MOTION_DOT":5.29e-6,"MEAN_MOTION_DDOT":0},{"OBJECT_NAME":"TECHSAT 1B (GO-32)","OBJECT_ID":"1998-043D","EPOCH":"2026-03-28T11:53:06.938016","MEAN_MOTION":14.2441101,"ECCENTRICITY":0.00023366,"INCLINATION":99.0047,"RA_OF_ASC_NODE":78.2313,"ARG_OF_PERICENTER":88.9707,"MEAN_ANOMALY":271.1738,"EPHEMERIS_TYPE":0,"CLASSIFICATION_TYPE":"U","NORAD_CAT_ID":25397,"ELEMENT_SET_NO":999,"REV_AT_EPOCH":43984,"BSTAR":5.9017597e-5,"MEAN_MOTION_DOT":9.0e-7,"MEAN_MOTION_DDOT":0},{"OBJECT_NAME":"SCD 2","OBJECT_ID":"1998-060A","EPOCH":"2026-03-28T09:15:08.109792","MEAN_MOTION":14.45492233,"ECCENTRICITY":0.0016766,"INCLINATION":24.9947,"RA_OF_ASC_NODE":210.452,"ARG_OF_PERICENTER":350.1305,"MEAN_ANOMALY":50.842,"EPHEMERIS_TYPE":0,"CLASSIFICATION_TYPE":"U","NORAD_CAT_ID":25504,"ELEMENT_SET_NO":999,"REV_AT_EPOCH":44862,"BSTAR":7.0232609e-5,"MEAN_MOTION_DOT":4.34e-6,"MEAN_MOTION_DDOT":0},{"OBJECT_NAME":"DLR-TUBSAT","OBJECT_ID":"1999-029B","EPOCH":"2026-03-28T13:16:48.364320","MEAN_MOTION":14.5240422,"ECCENTRICITY":0.00132486,"INCLINATION":98.668,"RA_OF_ASC_NODE":80.4143,"ARG_OF_PERICENTER":232.6993,"MEAN_ANOMALY":127.2994,"EPHEMERIS_TYPE":0,"CLASSIFICATION_TYPE":"U","NORAD_CAT_ID":25757,"ELEMENT_SET_NO":999,"REV_AT_EPOCH":42154,"BSTAR":4.3197228e-5,"MEAN_MOTION_DOT":1.28e-6,"MEAN_MOTION_DDOT":0},{"OBJECT_NAME":"TERRA","OBJECT_ID":"1999-068A","EPOCH":"2026-03-28T15:16:30.863712","MEAN_MOTION":14.61034278,"ECCENTRICITY":0.0003569,"INCLINATION":97.9553,"RA_OF_ASC_NODE":140.3437,"ARG_OF_PERICENTER":111.9893,"MEAN_ANOMALY":49.4323,"EPHEMERIS_TYPE":0,"CLASSIFICATION_TYPE":"U","NORAD_CAT_ID":25994,"ELEMENT_SET_NO":999,"REV_AT_EPOCH":39784,"BSTAR":9.7815553e-5,"MEAN_MOTION_DOT":4.36e-6,"MEAN_MOTION_DDOT":0},{"OBJECT_NAME":"MAROC-TUBSAT","OBJECT_ID":"2001-056D","EPOCH":"2026-03-28T11:09:50.501376","MEAN_MOTION":13.70258912,"ECCENTRICITY":0.00196858,"INCLINATION":99.8036,"RA_OF_ASC_NODE":262.8116,"ARG_OF_PERICENTER":351.9222,"MEAN_ANOMALY":71.9818,"EPHEMERIS_TYPE":0,"CLASSIFICATION_TYPE":"U","NORAD_CAT_ID":27004,"ELEMENT_SET_NO":999,"REV_AT_EPOCH":21513,"BSTAR":4.5360183e-5,"MEAN_MOTION_DOT":-7.0e-8,"MEAN_MOTION_DDOT":0},{"OBJECT_NAME":"AQUA","OBJECT_ID":"2002-022A","EPOCH":"2026-03-28T14:05:14.237376","MEAN_MOTION":14.62019053,"ECCENTRICITY":0.00011253,"INCLINATION":98.4205,"RA_OF_ASC_NODE":55.3007,"ARG_OF_PERICENTER":117.9874,"MEAN_ANOMALY":11.4525,"EPHEMERIS_TYPE":0,"CLASSIFICATION_TYPE":"U","NORAD_CAT_ID":27424,"ELEMENT_SET_NO":999,"REV_AT_EPOCH":27149,"BSTAR":0.00021489412,"MEAN_MOTION_DOT":1.029e-5,"MEAN_MOTION_DDOT":0},{"OBJECT_NAME":"IRS-P6 (RESOURCESAT-1)","OBJECT_ID":"2003-046A","EPOCH":"2026-03-28T15:05:46.351680","MEAN_MOTION":14.36128266,"ECCENTRICITY":0.00632403,"INCLINATION":98.2014,"RA_OF_ASC_NODE":128.0546,"ARG_OF_PERICENTER":223.2171,"MEAN_ANOMALY":251.9147,"EPHEMERIS_TYPE":0,"CLASSIFICATION_TYPE":"U","NORAD_CAT_ID":28051,"ELEMENT_SET_NO":999,"REV_AT_EPOCH":16896,"BSTAR":9.3927856e-5,"MEAN_MOTION_DOT":2.39e-6,"MEAN_MOTION_DDOT":0},{"OBJECT_NAME":"SHIYAN-1 (SY-1)","OBJECT_ID":"2004-012A","EPOCH":"2026-03-28T13:20:11.177088","MEAN_MOTION":15.31606443,"ECCENTRICITY":0.0004578,"INCLINATION":97.874,"RA_OF_ASC_NODE":160.5084,"ARG_OF_PERICENTER":309.0051,"MEAN_ANOMALY":51.0781,"EPHEMERIS_TYPE":0,"CLASSIFICATION_TYPE":"U","NORAD_CAT_ID":28220,"ELEMENT_SET_NO":999,"REV_AT_EPOCH":19874,"BSTAR":0.00055333756,"MEAN_MOTION_DOT":0.00016827,"MEAN_MOTION_DDOT":0},{"OBJECT_NAME":"AURA","OBJECT_ID":"2004-026A","EPOCH":"2026-03-28T14:19:54.598944","MEAN_MOTION":14.61190914,"ECCENTRICITY":0.00012998,"INCLINATION":98.334,"RA_OF_ASC_NODE":43.4268,"ARG_OF_PERICENTER":94.4221,"MEAN_ANOMALY":265.7128,"EPHEMERIS_TYPE":0,"CLASSIFICATION_TYPE":"U","NORAD_CAT_ID":28376,"ELEMENT_SET_NO":999,"REV_AT_EPOCH":15444,"BSTAR":0.00021688187,"MEAN_MOTION_DOT":1.02e-5,"MEAN_MOTION_DDOT":0},{"OBJECT_NAME":"IRS-P5 (CARTOSAT-1)","OBJECT_ID":"2005-017A","EPOCH":"2026-03-28T13:00:54.505728","MEAN_MOTION":14.90828902,"ECCENTRICITY":0.00014013,"INCLINATION":97.539,"RA_OF_ASC_NODE":114.2474,"ARG_OF_PERICENTER":50.832,"MEAN_ANOMALY":309.3023,"EPHEMERIS_TYPE":0,"CLASSIFICATION_TYPE":"U","NORAD_CAT_ID":28649,"ELEMENT_SET_NO":999,"REV_AT_EPOCH":13180,"BSTAR":0.0001738584,"MEAN_MOTION_DOT":1.659e-5,"MEAN_MOTION_DDOT":0},{"OBJECT_NAME":"SINAH 1","OBJECT_ID":"2005-043D","EPOCH":"2026-03-28T14:48:54.513504","MEAN_MOTION":14.64093844,"ECCENTRICITY":0.00148725,"INCLINATION":98.2721,"RA_OF_ASC_NODE":221.5246,"ARG_OF_PERICENTER":164.1334,"MEAN_ANOMALY":196.0337,"EPHEMERIS_TYPE":0,"CLASSIFICATION_TYPE":"U","NORAD_CAT_ID":28893,"ELEMENT_SET_NO":999,"REV_AT_EPOCH":8873,"BSTAR":0.00010504663,"MEAN_MOTION_DOT":5.03e-6,"MEAN_MOTION_DDOT":0},{"OBJECT_NAME":"RESURS-DK 1","OBJECT_ID":"2006-021A","EPOCH":"2026-03-28T13:52:50.520000","MEAN_MOTION":15.12862078,"ECCENTRICITY":0.00011993,"INCLINATION":69.9338,"RA_OF_ASC_NODE":188.1622,"ARG_OF_PERICENTER":53.9146,"MEAN_ANOMALY":306.2131,"EPHEMERIS_TYPE":0,"CLASSIFICATION_TYPE":"U","NORAD_CAT_ID":29228,"ELEMENT_SET_NO":999,"REV_AT_EPOCH":9038,"BSTAR":0.00015126078,"MEAN_MOTION_DOT":2.559e-5,"MEAN_MOTION_DDOT":0},{"OBJECT_NAME":"ARIRANG-2 (KOMPSAT-2)","OBJECT_ID":"2006-031A","EPOCH":"2026-03-28T14:41:15.790848","MEAN_MOTION":14.64603799,"ECCENTRICITY":0.00138507,"INCLINATION":97.8314,"RA_OF_ASC_NODE":275.9526,"ARG_OF_PERICENTER":334.6792,"MEAN_ANOMALY":97.8755,"EPHEMERIS_TYPE":0,"CLASSIFICATION_TYPE":"U","NORAD_CAT_ID":29268,"ELEMENT_SET_NO":999,"REV_AT_EPOCH":4968,"BSTAR":4.1992119e-5,"MEAN_MOTION_DOT":1.78e-6,"MEAN_MOTION_DDOT":0},{"OBJECT_NAME":"LAPAN-TUBSAT","OBJECT_ID":"2007-001A","EPOCH":"2026-03-28T13:56:54.498912","MEAN_MOTION":14.85856148,"ECCENTRICITY":0.00136174,"INCLINATION":98.1348,"RA_OF_ASC_NODE":84.998,"ARG_OF_PERICENTER":87.7958,"MEAN_ANOMALY":272.4816,"EPHEMERIS_TYPE":0,"CLASSIFICATION_TYPE":"U","NORAD_CAT_ID":29709,"ELEMENT_SET_NO":999,"REV_AT_EPOCH":3918,"BSTAR":1.6323888e-5,"MEAN_MOTION_DOT":8.5e-7,"MEAN_MOTION_DDOT":0},{"OBJECT_NAME":"HAIYANG-1B","OBJECT_ID":"2007-010A","EPOCH":"2026-03-28T12:37:59.441952","MEAN_MOTION":14.31005278,"ECCENTRICITY":0.00147529,"INCLINATION":98.3452,"RA_OF_ASC_NODE":72.5213,"ARG_OF_PERICENTER":81.144,"MEAN_ANOMALY":279.1413,"EPHEMERIS_TYPE":0,"CLASSIFICATION_TYPE":"U","NORAD_CAT_ID":31113,"ELEMENT_SET_NO":999,"REV_AT_EPOCH":98909,"BSTAR":6.3120464e-5,"MEAN_MOTION_DOT":1.25e-6,"MEAN_MOTION_DDOT":0},{"OBJECT_NAME":"COSMO-SKYMED 1","OBJECT_ID":"2007-023A","EPOCH":"2026-03-28T14:03:16.348032","MEAN_MOTION":14.96668274,"ECCENTRICITY":9.61e-5,"INCLINATION":97.8875,"RA_OF_ASC_NODE":278.7719,"ARG_OF_PERICENTER":99.7926,"MEAN_ANOMALY":260.3404,"EPHEMERIS_TYPE":0,"CLASSIFICATION_TYPE":"U","NORAD_CAT_ID":31598,"ELEMENT_SET_NO":999,"REV_AT_EPOCH":1773,"BSTAR":0.00031875661,"MEAN_MOTION_DOT":3.577e-5,"MEAN_MOTION_DDOT":0}]
